sat06173
1 06173U 72069A   20046.72061935  .00000087  00000-0  19185-4 0  9999
2 06173  89.9109 218.0427 0053403  17.3443 352.8613 14.49002122495502
